start=new Date('2023-06-22T00:00:00.000Z').valueOf();
sats=[{"NORAD_CAT_ID":"56777","RCS_SIZE":"LARGE","ARG_OF_PERICENTER":"273.5194","PERIOD":"91.722","RA_OF_ASC_NODE":"352.8563","TLE_LINE1":"1 56777U 23078L   23172.77638328  .00048519  00000-0  40230-3 0  9990","REF_FRAME":"TEME","SITE":"AFWTR","APOAPSIS":"361.584","COUNTRY_CODE":"US","PERIAPSIS":"356.436","DECAY_DATE":null,"CENTER_NAME":"EARTH","MEAN_MOTION":"15.69961235","FILE":"3939156","ECCENTRICITY":"0.00038210","GP_ID":"234439720","TIME_SYSTEM":"UTC","OBJECT_ID":"2023-078L","OBJECT_NAME":"STARLINK-5582","OBJECT_TYPE":"PAYLOAD","SEMIMAJOR_AXIS":"6737.145","LAUNCH_DATE":"2023-05-31","TLE_LINE2":"2 56777  70.0009 352.8563 0003821 273.5194  86.5565 15.69961235  3686","MEAN_MOTION_DOT":"0.00048519","MEAN_MOTION_DDOT":"0.0000000000000","BSTAR":"0.00040230000000","EPHEMERIS_TYPE":"0","MEAN_ELEMENT_THEORY":"SGP4","REV_AT_EPOCH":"368","INCLINATION":"70.0009","ELEMENT_SET_NO":"999","MEAN_ANOMALY":"86.5565","CLASSIFICATION_TYPE":"U","EPOCH":"2023-06-21T18:37:59.515392"},{"MEAN_MOTION_DOT":"0.00042305","MEAN_MOTION_DDOT":"0.0000000000000","LAUNCH_DATE":"2023-05-31","TLE_LINE2":"2 56778  70.0001 352.8614 0003803 276.3306  83.7456 15.69957834  3680","OBJECT_TYPE":"PAYLOAD","SEMIMAJOR_AXIS":"6737.155","OBJECT_ID":"2023-078M","OBJECT_NAME":"STARLINK-6304","ELEMENT_SET_NO":"999","MEAN_ANOMALY":"83.7456","CLASSIFICATION_TYPE":"U","EPOCH":"2023-06-21T18:38:54.168576","MEAN_ELEMENT_THEORY":"SGP4","REV_AT_EPOCH":"368","INCLINATION":"70.0001","EPHEMERIS_TYPE":"0","BSTAR":"0.00035131000000","APOAPSIS":"361.582","RA_OF_ASC_NODE":"352.8614","TLE_LINE1":"1 56778U 23078M   23172.77701584  .00042305  00000-0  35131-3 0  9997","REF_FRAME":"TEME","SITE":"AFWTR","NORAD_CAT_ID":"56778","RCS_SIZE":"LARGE","PERIOD":"91.722","ARG_OF_PERICENTER":"276.3306","TIME_SYSTEM":"UTC","MEAN_MOTION":"15.69957834","FILE":"3939156","ECCENTRICITY":"0.00038030","GP_ID":"234439727","COUNTRY_CODE":"US","PERIAPSIS":"356.457","DECAY_DATE":null,"CENTER_NAME":"EARTH"},{"NORAD_CAT_ID":"56779","RCS_SIZE":"LARGE","PERIOD":"91.724","ARG_OF_PERICENTER":"275.8259","RA_OF_ASC_NODE":"353.3909","REF_FRAME":"TEME","SITE":"AFWTR","TLE_LINE1":"1 56779U 23078N   23172.58471008  .00037916  00000-0  31560-3 0  9996","APOAPSIS":"361.742","PERIAPSIS":"356.471","COUNTRY_CODE":"US","CENTER_NAME":"EARTH","DECAY_DATE":null,"MEAN_MOTION":"15.69927470","GP_ID":"234438578","FILE":"3939133","ECCENTRICITY":"0.00039120","TIME_SYSTEM":"UTC","OBJECT_NAME":"STARLINK-6231","OBJECT_ID":"2023-078N","OBJECT_TYPE":"PAYLOAD","SEMIMAJOR_AXIS":"6737.242","LAUNCH_DATE":"2023-05-31","TLE_LINE2":"2 56779  70.0008 353.3909 0003912 275.8259  84.2490 15.69927470  3398","MEAN_MOTION_DDOT":"0.0000000000000","MEAN_MOTION_DOT":"0.00037916","BSTAR":"0.00031560000000","EPHEMERIS_TYPE":"0","MEAN_ELEMENT_THEORY":"SGP4","INCLINATION":"70.0008","REV_AT_EPOCH":"339","MEAN_ANOMALY":"84.2490","CLASSIFICATION_TYPE":"U","ELEMENT_SET_NO":"999","EPOCH":"2023-06-21T14:01:58.950912"},{"MEAN_MOTION":"15.69933487","GP_ID":"234438426","FILE":"3939133","ECCENTRICITY":"0.00038270","COUNTRY_CODE":"US","PERIAPSIS":"356.511","CENTER_NAME":"EARTH","DECAY_DATE":null,"TIME_SYSTEM":"UTC","RA_OF_ASC_NODE":"353.3940","REF_FRAME":"TEME","SITE":"AFWTR","TLE_LINE1":"1 56780U 23078P   23172.58513088  .00020269  00000-0  16985-3 0  9990","NORAD_CAT_ID":"56780","RCS_SIZE":"LARGE","PERIOD":"91.724","ARG_OF_PERICENTER":"274.6103","APOAPSIS":"361.668","MEAN_ELEMENT_THEORY":"SGP4","INCLINATION":"70.0006","REV_AT_EPOCH":"339","EPHEMERIS_TYPE":"0","BSTAR":"0.00016985000000","MEAN_ANOMALY":"85.4656","CLASSIFICATION_TYPE":"U","ELEMENT_SET_NO":"999","EPOCH":"2023-06-21T14:02:35.308032","OBJECT_TYPE":"PAYLOAD","SEMIMAJOR_AXIS":"6737.224","OBJECT_NAME":"STARLINK-5963","OBJECT_ID":"2023-078P","MEAN_MOTION_DOT":"0.00020269","MEAN_MOTION_DDOT":"0.0000000000000","LAUNCH_DATE":"2023-05-31","TLE_LINE2":"2 56780  70.0006 353.3940 0003827 274.6103  85.4656 15.69933487  3395"},{"APOAPSIS":"361.426","RA_OF_ASC_NODE":"352.8514","REF_FRAME":"TEME","SITE":"AFWTR","TLE_LINE1":"1 56781U 23078Q   23172.77543559  .00043171  00000-0  35847-3 0  9993","NORAD_CAT_ID":"56781","ARG_OF_PERICENTER":"267.9698","RCS_SIZE":"LARGE","PERIOD":"91.722","TIME_SYSTEM":"UTC","MEAN_MOTION":"15.69956130","GP_ID":"234439092","FILE":"3939144","ECCENTRICITY":"0.00035640","COUNTRY_CODE":"US","PERIAPSIS":"356.623","CENTER_NAME":"EARTH","DECAY_DATE":null,"MEAN_MOTION_DDOT":"0.0000000000000","MEAN_MOTION_DOT":"0.00043171","LAUNCH_DATE":"2023-05-31","TLE_LINE2":"2 56781  70.0013 352.8514 0003564 267.9698  92.1090 15.69956130  3686","OBJECT_TYPE":"PAYLOAD","SEMIMAJOR_AXIS":"6737.160","OBJECT_NAME":"STARLINK-5989","OBJECT_ID":"2023-078Q","CLASSIFICATION_TYPE":"U","MEAN_ANOMALY":"92.1090","ELEMENT_SET_NO":"999","EPOCH":"2023-06-21T18:36:37.634976","MEAN_ELEMENT_THEORY":"SGP4","INCLINATION":"70.0013","REV_AT_EPOCH":"368","BSTAR":"0.00035847000000","EPHEMERIS_TYPE":"0"},{"MEAN_ELEMENT_THEORY":"SGP4","INCLINATION":"70.0004","REV_AT_EPOCH":"339","EPHEMERIS_TYPE":"0","BSTAR":"0.00010232000000","MEAN_ANOMALY":"87.3625","CLASSIFICATION_TYPE":"U","ELEMENT_SET_NO":"999","EPOCH":"2023-06-21T14:03:29.928384","OBJECT_TYPE":"PAYLOAD","SEMIMAJOR_AXIS":"6737.244","OBJECT_NAME":"STARLINK-6352","OBJECT_ID":"2023-078R","MEAN_MOTION_DOT":"0.00012111","MEAN_MOTION_DDOT":"0.0000000000000","LAUNCH_DATE":"2023-05-31","TLE_LINE2":"2 56782  70.0004 353.3971 0004043 272.7108  87.3625 15.69926465  3399","MEAN_MOTION":"15.69926465","GP_ID":"234438964","FILE":"3939133","ECCENTRICITY":"0.00040430","PERIAPSIS":"356.386","COUNTRY_CODE":"US","CENTER_NAME":"EARTH","DECAY_DATE":null,"TIME_SYSTEM":"UTC","RA_OF_ASC_NODE":"353.3971","REF_FRAME":"TEME","SITE":"AFWTR","TLE_LINE1":"1 56782U 23078R   23172.58576306  .00012111  00000-0  10232-3 0  9990","NORAD_CAT_ID":"56782","ARG_OF_PERICENTER":"272.7108","RCS_SIZE":"LARGE","PERIOD":"91.724","APOAPSIS":"361.833"},{"MEAN_MOTION":"15.69952707","ECCENTRICITY":"0.00038060","FILE":"3939144","GP_ID":"234439011","COUNTRY_CODE":"US","PERIAPSIS":"356.470","DECAY_DATE":null,"CENTER_NAME":"EARTH","TIME_SYSTEM":"UTC","RA_OF_ASC_NODE":"352.8570","TLE_LINE1":"1 56783U 23078S   23172.77659519  .00065722  00000-0  54339-3 0  9992","REF_FRAME":"TEME","SITE":"AFWTR","NORAD_CAT_ID":"56783","ARG_OF_PERICENTER":"269.0833","RCS_SIZE":"LARGE","PERIOD":"91.723","APOAPSIS":"361.598","MEAN_ELEMENT_THEORY":"SGP4","REV_AT_EPOCH":"368","INCLINATION":"70.0009","EPHEMERIS_TYPE":"0","BSTAR":"0.00054339000000","ELEMENT_SET_NO":"999","MEAN_ANOMALY":"90.9927","CLASSIFICATION_TYPE":"U","EPOCH":"2023-06-21T18:38:17.824416","OBJECT_TYPE":"PAYLOAD","SEMIMAJOR_AXIS":"6737.169","OBJECT_ID":"2023-078S","OBJECT_NAME":"STARLINK-6357","MEAN_MOTION_DOT":"0.00065722","MEAN_MOTION_DDOT":"0.0000000000000","LAUNCH_DATE":"2023-05-31","TLE_LINE2":"2 56783  70.0009 352.8570 0003806 269.0833  90.9927 15.69952707  3689"},{"RA_OF_ASC_NODE":"352.8601","REF_FRAME":"TEME","SITE":"AFWTR","TLE_LINE1":"1 56784U 23078T   23172.77680620  .00040278  00000-0  33472-3 0  9994","NORAD_CAT_ID":"56784","ARG_OF_PERICENTER":"277.6571","RCS_SIZE":"LARGE","PERIOD":"91.723","APOAPSIS":"361.537","MEAN_MOTION":"15.69952410","GP_ID":"234439234","ECCENTRICITY":"0.00037140","FILE":"3939154","COUNTRY_CODE":"US","PERIAPSIS":"356.533","CENTER_NAME":"EARTH","DECAY_DATE":null,"TIME_SYSTEM":"UTC","OBJECT_TYPE":"PAYLOAD","SEMIMAJOR_AXIS":"6737.170","OBJECT_NAME":"STARLINK-6354","OBJECT_ID":"2023-078T","MEAN_MOTION_DDOT":"0.0000000000000","MEAN_MOTION_DOT":"0.00040278","LAUNCH_DATE":"2023-05-31","TLE_LINE2":"2 56784  70.0003 352.8601 0003714 277.6571  82.4203 15.69952410  3685","MEAN_ELEMENT_THEORY":"SGP4","INCLINATION":"70.0003","REV_AT_EPOCH":"368","EPHEMERIS_TYPE":"0","BSTAR":"0.00033472000000","MEAN_ANOMALY":"82.4203","CLASSIFICATION_TYPE":"U","ELEMENT_SET_NO":"999","EPOCH":"2023-06-21T18:38:36.055680"},{"COUNTRY_CODE":"US","PERIAPSIS":"356.543","DECAY_DATE":null,"CENTER_NAME":"EARTH","MEAN_MOTION":"15.69935732","ECCENTRICITY":"0.00037700","FILE":"3939133","GP_ID":"234438504","TIME_SYSTEM":"UTC","NORAD_CAT_ID":"56785","PERIOD":"91.723","RCS_SIZE":"LARGE","ARG_OF_PERICENTER":"272.3387","RA_OF_ASC_NODE":"353.3915","TLE_LINE1":"1 56785U 23078U   23172.58449941  .00025218  00000-0  21075-3 0  9996","SITE":"AFWTR","REF_FRAME":"TEME","APOAPSIS":"361.623","EPHEMERIS_TYPE":"0","BSTAR":"0.00021075000000","MEAN_ELEMENT_THEORY":"SGP4","INCLINATION":"70.0007","REV_AT_EPOCH":"408","ELEMENT_SET_NO":"999","MEAN_ANOMALY":"87.7377","CLASSIFICATION_TYPE":"U","EPOCH":"2023-06-21T14:01:40.749024","OBJECT_ID":"2023-078U","OBJECT_NAME":"STARLINK-5931","OBJECT_TYPE":"PAYLOAD","SEMIMAJOR_AXIS":"6737.218","LAUNCH_DATE":"2023-05-31","TLE_LINE2":"2 56785  70.0007 353.3915 0003770 272.3387  87.7377 15.69935732  4086","MEAN_MOTION_DDOT":"0.0000000000000","MEAN_MOTION_DOT":"0.00025218"},{"PERIOD":"91.722","RCS_SIZE":"LARGE","ARG_OF_PERICENTER":"276.3115","NORAD_CAT_ID":"56786","TLE_LINE1":"1 56786U 23078V   23172.77648885  .00041665  00000-0  34605-3 0  9993","REF_FRAME":"TEME","SITE":"AFWTR","RA_OF_ASC_NODE":"352.8593","APOAPSIS":"361.595","DECAY_DATE":null,"CENTER_NAME":"EARTH","PERIAPSIS":"356.445","COUNTRY_CODE":"US","ECCENTRICITY":"0.00038220","FILE":"3939155","GP_ID":"234439248","MEAN_MOTION":"15.69957793","TIME_SYSTEM":"UTC","OBJECT_ID":"2023-078V","OBJECT_NAME":"STARLINK-6341","SEMIMAJOR_AXIS":"6737.155","OBJECT_TYPE":"PAYLOAD","TLE_LINE2":"2 56786  70.0002 352.8593 0003822 276.3115  83.7646 15.69957793  3680","LAUNCH_DATE":"2023-05-31","MEAN_MOTION_DOT":"0.00041665","MEAN_MOTION_DDOT":"0.0000000000000","BSTAR":"0.00034605000000","EPHEMERIS_TYPE":"0","REV_AT_EPOCH":"368","INCLINATION":"70.0002","MEAN_ELEMENT_THEORY":"SGP4","EPOCH":"2023-06-21T18:38:08.636640","ELEMENT_SET_NO":"999","CLASSIFICATION_TYPE":"U","MEAN_ANOMALY":"83.7646"}];
